SHIYAN-24C 02           
1 58651U 23206B   26068.89175597  .00002770  00000+0  23935-3 0  9991
2 58651  97.3985  41.8071 0003465  80.6641 279.4974 14.97980163120443
STARLINK-33943          
1 63884U 25094W   26068.86345958  .00012774  00000+0  10760-2 0  9995
2 63884  70.0014 233.8376 0003131 269.1852  90.8948 14.98344036 47232
